OBJECT_NAME,OBJECT_ID,EPOCH,MEAN_MOTION,ECCENTRICITY,INCLINATION,RA_OF_ASC_NODE,ARG_OF_PERICENTER,MEAN_ANOMALY,EPHEMERIS_TYPE,CLASSIFICATION_TYPE,NORAD_CAT_ID,ELEMENT_SET_NO,REV_AT_EPOCH,BSTAR,MEAN_MOTION_DOT,MEAN_MOTION_DDOT
EYESAT A (AO-27),1993-061C,2026-06-03T03:43:05.817216,14.30938275,.0009211,98.6883,221.5730,136.3443,223.8470,0,U,22825,999,70499,.66999625E-4,.132E-5,0
ITAMSAT (IO-26),1993-061D,2026-06-03T15:04:06.008448,14.31364841,.00099648,98.6830,221.9619,120.4008,239.8161,0,U,22826,999,70537,.6084798E-4,.117E-5,0
RADIO ROSTO (RS15),1994-085A,2026-06-03T21:37:52.987872,11.27583593,.01555352,64.8185,324.7036,6.3318,353.9525,0,U,23439,999,29440,-.45533549E-3,-.59E-6,0
JAS-2 (FO-29),1996-046B,2026-06-03T13:25:10.751808,13.53273610,.03506368,98.5251,5.2975,131.7079,231.4625,0,U,24278,999,47132,.4929532E-5,-.28E-6,0
FORTE,1997-047A,2026-06-02T19:18:50.646240,14.27939081,.00243718,69.9543,46.5074,294.7895,65.0691,0,U,24920,999,49663,.95941015E-4,.181E-5,0
TECHSAT 1B (GO-32),1998-043D,2026-06-03T13:51:55.224864,14.24425649,.00003192,99.0064,146.9934,213.6137,146.5021,0,U,25397,999,44939,.49971906E-4,.69E-6,0
ISS (ZARYA),1998-067A,2026-06-03T17:01:40.101024,15.49585865,.00070894,51.6330,6.8180,128.9940,231.1681,0,U,25544,999,56966,.16154302E-3,.8646E-4,0
IMAGE,2000-017A,2026-06-01T06:23:33.544608,1.68666062,.74437368,94.2162,315.1599,289.6105,8.6041,0,U,26113,999,16123,-.18882371E-1,-.99E-6,0
CLUSTER II-FM7 (SAMBA),2000-041A,2026-06-05T23:36:57.501504,0.44829937,.90409651,149.8917,48.5803,265.6480,0.0292,0,U,26410,999,2025,0,.4453E-4,0
CLUSTER II-FM8 (TANGO),2000-045B,2026-05-30T10:18:46.567296,0.44418197,.90360595,150.1271,48.5941,265.4393,3.5087,0,U,26464,999,2023,0,.4404E-4,0
ODIN,2001-007A,2026-06-03T14:42:46.685376,15.71427436,.00059409,97.3861,194.7266,161.5590,198.5889,0,U,26702,999,38726,.12152325E-2,.157367E-2,0
OMNI-M1,2001-026A,2026-06-01T10:20:26.418048,3.92401639,.00146729,44.8352,248.8960,50.7644,309.4132,0,U,26857,999,20495,0,-.1E-6,0
PCSAT (NO-44),2001-043C,2026-06-03T14:37:22.463328,14.31950876,.00061154,67.0512,279.3895,263.9670,96.0735,0,U,26931,999,28850,.91733675E-4,.163E-5,0
PROBA-1,2001-049B,2026-06-03T22:15:28.852128,15.07435237,.00553982,97.9597,162.9974,165.9939,194.2840,0,U,26958,999,34162,.71664231E-4,.1052E-4,0
SAUDISAT 1C (SO-50),2002-058C,2026-06-03T06:20:18.097440,14.83015002,.00755199,64.5505,172.0623,265.0164,94.2317,0,U,27607,999,26239,.14986347E-3,.1126E-4,0
CORIOLIS,2003-001A,2026-06-03T14:20:16.363968,14.19940938,.00128568,98.7126,161.6896,250.5610,109.4178,0,U,27640,999,21229,.68249793E-4,.101E-5,0
CUTE-1 (CO-55),2003-031E,2026-06-03T13:11:18.293856,14.24327019,.00086909,98.6736,163.2800,219.4250,140.6297,0,U,27844,999,18973,.16425086E-3,.336E-5,0
CUBESAT XI-IV (CO-57),2003-031J,2026-06-01T00:01:20.276832,14.23611465,.00082889,98.6768,160.4891,248.3946,111.6350,0,U,27848,999,18907,.14575851E-3,.288E-5,0
MOZHAETS 4 (RS22),2003-042A,2026-06-03T23:28:15.718080,14.73445047,.00103821,98.3464,338.9639,316.3760,146.9985,0,U,27939,999,21360,.2509379E-3,.1575E-4,0
